GLOBALSTAR M069         
1 31573U 07020C   26198.27290565 -.00000104  00000+0 -10149-3 0  9994
2 31573  52.0009 166.9710 0001598 214.9087 283.3106 12.23472257882489
GLOBALSTAR M072         
1 31574U 07020D   26198.27779275 -.00000079  00000+0  65282-4 0  9994
2 31574  51.9950  20.1360 0001647  39.5761 150.9888 11.91658839878566
GLOBALSTAR M066         
1 32265U 07048C   26197.56939037 -.00000046  00000+0  40679-3 0  9993
2 32265  51.9609 333.5655 0005586 104.4817 336.2278 12.30389593863842
GLOBALSTAR M079         
1 37188U 10054A   26198.25056810 -.00000109  00000+0 -30173-4 0  9999
2 37188  52.0056  17.1527 0001129  81.1766  90.7351 12.62266424726344
GLOBALSTAR M074         
1 37189U 10054B   26197.70268517 -.00000105  00000+0 -92775-5 0  9991
2 37189  52.0033  18.0813 0000866  94.8333 346.1544 12.62262050726888
GLOBALSTAR M076         
1 37190U 10054C   26197.90597635 -.00000088  00000+0  85623-4 0  9993
2 37190  52.0046  17.6683 0001100  94.5452  70.5836 12.62262469726623
GLOBALSTAR M077         
1 37191U 10054D   26198.19777797 -.00000103  00000+0 -46617-3 0  9993
2 37191  51.9959 103.1240 0002226 228.9838 299.4155 11.67547328724646
GLOBALSTAR M075         
1 37192U 10054E   26198.07724782 -.00000091  00000+0  73278-4 0  9996
2 37192  51.9955  59.1841 0000774  67.3811  96.9658 12.62267872725718
GLOBALSTAR M073         
1 37193U 10054F   26197.58424689 -.00000101  00000+0  14331-4 0  9992
2 37193  52.0082 334.8088 0001049  98.2466 343.0539 12.62266918727641
GLOBALSTAR M083         
1 37739U 11033A   26198.21830752 -.00000075  00000+0  16115-3 0  9990
2 37739  51.9862 281.0676 0000727 108.7385 276.5000 12.62264256696748
GLOBALSTAR M088         
1 37740U 11033B   26198.27221347 -.00000115  00000+0 -62679-4 0  9995
2 37740  52.0189 187.4019 0000078  61.0274 328.0142 12.62269509692293
GLOBALSTAR M091         
1 37741U 11033C   26198.31489340 -.00000108  00000+0 -25476-4 0  9996
2 37741  51.9982 150.1928 0000480  28.5497 135.1036 12.62264236693080
GLOBALSTAR M085         
1 37742U 11033D   26198.22300495 -.00000084  00000+0  11122-3 0  9994
2 37742  52.0125 101.7911 0000824  44.3932 121.5115 12.62264379693588
GLOBALSTAR M081         
1 37743U 11033E   26198.25162919 -.00000092  00000+0  63087-4 0  9992
2 37743  51.9956 104.1057 0000713  57.4683 118.4316 12.62265286693735
GLOBALSTAR M089         
1 37744U 11033F   26198.05087211 -.00000093  00000+0  62280-4 0  9997
2 37744  51.9937  58.8701 0000702  91.0766  73.2268 12.62267575694558
GLOBALSTAR M084         
1 38040U 11080A   26198.26926888 -.00000080  00000+0  13373-3 0  9998
2 38040  52.0018 285.7040 0000773 133.3605 243.6392 12.62263578672564
GLOBALSTAR M080         
1 38041U 11080B   26198.24108413 -.00000079  00000+0  13685-3 0  9997
2 38041  52.0067 287.5186 0000283  79.0400 299.5857 12.62257515672688
GLOBALSTAR M082         
1 38042U 11080C   26198.09795038 -.00000083  00000+0  11451-3 0  9990
2 38042  52.0060 243.4583 0000198  78.9877 298.8883 12.62264344673371
GLOBALSTAR M092         
1 38043U 11080D   26198.30835348 -.00000088  00000+0  86885-4 0  9993
2 38043  52.0105 333.2149 0000759 106.4039 267.4253 12.62267818671851
GLOBALSTAR M090         
1 38044U 11080E   26198.12809628 -.00000079  00000+0  13632-3 0  9995
2 38044  52.0103 237.3317 0000413  89.1139 304.6303 12.62269629673490
GLOBALSTAR M086         
1 38045U 11080F   26198.06607035 -.00000094  00000+0  54639-4 0  9997
2 38045  51.9875 237.4002 0001479 114.4095 261.1789 12.62287855673433
GLOBALSTAR M097         
1 39072U 13005A   26198.25282374 -.00000118  00000+0 -79913-4 0  9993
2 39072  52.0028 151.8123 0000490  42.3785 317.7119 12.62271324620707
GLOBALSTAR M093         
1 39073U 13005B   26198.22606628 -.00000106  00000+0 -11892-4 0  9992
2 39073  52.0093 145.2523 0000704  47.7349 312.3577 12.62266331620659
GLOBALSTAR M094         
1 39074U 13005C   26197.98837083 -.00000092  00000+0  65679-4 0  9991
2 39074  51.9971  60.0636 0001023  65.3700 294.7273 12.62264163622237
GLOBALSTAR M096         
1 39075U 13005D   26198.16026490 -.00000087  00000+0  91513-4 0  9995
2 39075  52.0072 108.3649 0000785  46.0016 314.0916 12.62265725621179
GLOBALSTAR M078         
1 39076U 13005E   26198.29176714 -.00000122  00000+0 -10373-3 0  9990
2 39076  51.9845 191.9336 0000887 344.3933  15.6906 12.62260136619814
GLOBALSTAR M095         
1 39077U 13005F   26198.00170557 -.00000124  00000+0 -11568-3 0  9998
2 39077  52.0053 190.4627 0000502  15.9814 344.1068 12.62264118619631
GLOBALSTAR M087         
1 52888U 22064A   26198.33154550 -.00000089  00000+0  83135-4 0  9998
2 52888  52.0017 330.6804 0000896  86.9366 273.1604 12.62269402194947
